[
    {
        "CCSDS_OMM_VERS": "3.0",
        "COMMENT": "GENERATED VIA SPACE-TRACK.ORG API",
        "CREATION_DATE": "2025-04-14T03:05:54",
        "ORIGINATOR": "18 SPCS",
        "OBJECT_NAME": "GALILEO 16 (26C)",
        "OBJECT_ID": "2016-069B",
        "CENTER_NAME": "EARTH",
        "REF_FRAME": "TEME",
        "TIME_SYSTEM": "UTC",
        "MEAN_ELEMENT_THEORY": "SGP4",
        "EPOCH": "2025-04-13T05:16:55.428672",
        "MEAN_MOTION": "1.70474650",
        "ECCENTRICITY": "0.00042890",
        "INCLINATION": "55.2386",
        "RA_OF_ASC_NODE": "112.9908",
        "ARG_OF_PERICENTER": "324.7312",
        "MEAN_ANOMALY": "35.2781",
        "EPHEMERIS_TYPE": "0",
        "CLASSIFICATION_TYPE": "U",
        "NORAD_CAT_ID": "41860",
        "ELEMENT_SET_NO": "999",
        "REV_AT_EPOCH": "5232",
        "BSTAR": "0.00000000000000",
        "MEAN_MOTION_DOT": "0.00000054",
        "MEAN_MOTION_DDOT": "0.0000000000000",
        "SEMIMAJOR_AXIS": "29600.245",
        "PERIOD": "844.700",
        "APOAPSIS": "23234.805",
        "PERIAPSIS": "23209.414",
        "OBJECT_TYPE": "PAYLOAD",
        "RCS_SIZE": "LARGE",
        "COUNTRY_CODE": "ESA",
        "LAUNCH_DATE": "2016-11-17",
        "SITE": "FRGUI",
        "DECAY_DATE": null,
        "FILE": "4701263",
        "GP_ID": "285537969",
        "TLE_LINE0": "0 GALILEO 16 (26C)",
        "TLE_LINE1": "1 41860U 16069B   25103.22008598  .00000054  00000-0  00000-0 0  9995",
        "TLE_LINE2": "2 41860  55.2386 112.9908 0004289 324.7312  35.2781  1.70474650 52327"
    }
]